     2              NAVIGATION DATA                         RINEX VERSION / TYPE
CCRINEXN V1.6.0 UX  CDDIS               01-APR-15 17:31     PGM / RUN BY / DATE 
IGS BROADCAST EPHEMERIS FILE                                COMMENT             
    0.2608D-07  0.7451D-08 -0.1192D-06  0.0000D+00          ION ALPHA           
    0.1290D+06  0.0000D+00 -0.2621D+06  0.2621D+06          ION BETA            
    0.000000000000D+00-0.444089209850D-14   405504     1838 DELTA-UTC: A0,A1,T,W
    16                                                      LEAP SECONDS        
                                                            END OF HEADER       
19 15  3 31 16  0  0.0-0.505817122757D-03-0.125055521494D-11 0.000000000000D+00
    0.670000000000D+02-0.202500000000D+02 0.448804408791D-08 0.292206816725D+01
   -0.107660889625D-05 0.111500421772D-01 0.377930700779D-05 0.515370874405D+04
    0.230400000000D+06-0.484287738800D-07-0.188439660706D+01-0.130385160446D-06
    0.968585499668D+00 0.312343750000D+03 0.525547997881D+00-0.811176645906D-08
    0.303584074067D-10 0.100000000000D+01 0.183800000000D+04 0.000000000000D+00
    0.200000000000D+01 0.000000000000D+00-0.149011611938D-07 0.670000000000D+02
    0.223218000000D+06 0.400000000000D+01 0.000000000000D+00 0.000000000000D+00
20 15  3 31 16  0  0.0 0.305464956909D-03 0.397903932026D-11 0.000000000000D+00
    0.190000000000D+02 0.435937500000D+02 0.519771650576D-08-0.196642048101D+01
    0.222027301788D-05 0.573795882519D-02 0.100843608379D-04 0.515578352165D+04
    0.230400000000D+06 0.117346644402D-06 0.450775384604D-01 0.149011611938D-07
    0.926841445341D+00 0.161031250000D+03 0.122257967726D+01-0.824927218673D-08
    0.451447376024D-09 0.000000000000D+00 0.183800000000D+04 0.000000000000D+00
    0.200000000000D+01 0.000000000000D+00-0.838190317154D-08 0.190000000000D+02
    0.223200000000D+06 0.400000000000D+01 0.000000000000D+00 0.000000000000D+00
21 15  3 31 16  0  0.0-0.431946944445D-03-0.386535248253D-11 0.000000000000D+00
    0.590000000000D+02-0.663437500000D+02 0.516807241382D-08-0.251827434995D-01
   -0.340119004250D-05 0.224568466656D-01 0.876374542713D-05 0.515358949661D+04
    0.230400000000D+06-0.307336449623D-06-0.945698864611D+00 0.322237610817D-06
    0.933616984072D+00 0.202531250000D+03-0.192727560933D+01-0.870857703290D-08
   -0.150006248362D-09 0.100000000000D+01 0.183800000000D+04 0.000000000000D+00
    0.400000000000D+01 0.000000000000D+00-0.116415321827D-07 0.590000000000D+02
    0.223218000000D+06 0.400000000000D+01 0.000000000000D+00 0.000000000000D+00
22 15  3 31 16  0  0.0 0.334605574608D-03 0.420641299570D-11 0.000000000000D+00
    0.750000000000D+02 0.440312500000D+02 0.531486424257D-08-0.153617960642D+01
    0.238977372646D-05 0.769415800460D-02 0.922940671444D-05 0.515369784927D+04
    0.230400000000D+06 0.122934579849D-06 0.988958690785D-01 0.782310962677D-07
    0.923465286424D+00 0.178281250000D+03-0.206070653576D+01-0.834284751309D-08
    0.419660337680D-09 0.100000000000D+01 0.183800000000D+04 0.000000000000D+00
    0.280000000000D+01 0.000000000000D+00-0.176951289177D-07 0.750000000000D+02
    0.223218000000D+06 0.400000000000D+01 0.000000000000D+00 0.000000000000D+00
23 15  3 31 16  0  0.0-0.987998209894D-04-0.250111042988D-11 0.000000000000D+00
    0.440000000000D+02 0.765625000000D+01 0.527521973408D-08 0.249545078275D+01
    0.359490513802D-06 0.992319849320D-02 0.450201332569D-05 0.515363700294D+04
    0.230400000000D+06-0.206753611565D-06 0.116849463473D+01-0.111758708954D-06
    0.948730563373D+00 0.290375000000D+03-0.270303720071D+01-0.840320717017D-08
    0.535736601294D-11 0.100000000000D+01 0.183800000000D+04 0.000000000000D+00
    0.200000000000D+01 0.000000000000D+00-0.200234353542D-07 0.440000000000D+02
    0.227922000000D+06 0.400000000000D+01 0.000000000000D+00 0.000000000000D+00
24 15  3 31 16  0  0.0-0.458904542029D-04-0.568434188608D-12 0.000000000000D+00
    0.200000000000D+02-0.441875000000D+02 0.468090926437D-08 0.176189535811D+01
   -0.214204192162D-05 0.319441605825D-02 0.964850187302D-05 0.515368331718D+04
    0.230400000000D+06-0.447034835815D-07 0.219589344373D+01 0.577419996262D-07
    0.953885092320D+00 0.190281250000D+03 0.340817713134D+00-0.813748181592D-08
   -0.482162941165D-09 0.000000000000D+00 0.183800000000D+04 0.000000000000D+00
    0.200000000000D+01 0.000000000000D+00 0.232830643654D-08 0.200000000000D+02
    0.230370000000D+06 0.400000000000D+01 0.000000000000D+00 0.000000000000D+00
25 15  3 31 16  0  0.0-0.156057067215D-04-0.329691829393D-11 0.000000000000D+00
    0.250000000000D+02 0.553750000000D+02 0.407266964304D-08-0.215625857934D+00
    0.285357236862D-05 0.442795932759D-02 0.910833477974D-05 0.515370280457D+04
    0.230400000000D+06-0.372529029846D-08-0.302601580260D+01 0.149011611938D-07
    0.978313887340D+00 0.209968750000D+03 0.680104315726D+00-0.792890169915D-08
    0.169292766009D-09 0.100000000000D+01 0.183800000000D+04 0.000000000000D+00
    0.200000000000D+01 0.000000000000D+00 0.512227416039D-08 0.250000000000D+02
    0.225870000000D+06 0.400000000000D+01 0.000000000000D+00 0.000000000000D+00
26 15  3 31 16  0  0.0 0.258581712842D-05 0.155750967679D-10 0.000000000000D+00
    0.330000000000D+02 0.590312500000D+02 0.428160691754D-08-0.114257516422D+01
    0.296905636787D-05 0.219179317355D-03 0.901520252228D-05 0.518126110458D+04
    0.230400000000D+06-0.298023223877D-07-0.302787129913D+01-0.372529029846D-07
    0.960376997568D+00 0.195687500000D+03 0.161680294258D+01-0.777032366517D-08
    0.171078554680D-09 0.100000000000D+01 0.183800000000D+04 0.000000000000D+00
    0.570000000000D+01 0.630000000000D+02 0.838190317154D-08 0.330000000000D+02
    0.225870000000D+06 0.400000000000D+01 0.000000000000D+00 0.000000000000D+00
27 15  3 31 16  0  0.0 0.617350451648D-04 0.261479726760D-11 0.000000000000D+00
    0.170000000000D+02-0.593750000000D+01 0.456090426568D-08-0.246812326969D+01
   -0.258907675743D-06 0.224106921814D-02 0.373087823391D-05 0.515368564224D+04
    0.230400000000D+06 0.558793544769D-08-0.198165897303D+01 0.204890966415D-07
    0.966426124327D+00 0.312437500000D+03 0.145766272162D+00-0.826284418063D-08
    0.100004165575D-09 0.100000000000D+01 0.183800000000D+04 0.000000000000D+00
    0.200000000000D+01 0.000000000000D+00 0.186264514923D-08 0.170000000000D+02
    0.223218000000D+06 0.400000000000D+01 0.000000000000D+00 0.000000000000D+00
28 15  3 31 16  0  0.0 0.429745297879D-03 0.261479726760D-11 0.000000000000D+00
    0.153000000000D+03 0.725937500000D+02 0.370729728095D-08-0.175799184941D+01
    0.387057662010D-05 0.195724073565D-01 0.873953104019D-05 0.515369568825D+04
    0.230400000000D+06 0.348314642906D-06-0.295601905509D+01 0.355765223503D-06
    0.988918118215D+00 0.225937500000D+03-0.166537125667D+01-0.762031741681D-08
    0.201794119821D-09 0.100000000000D+01 0.183800000000D+04 0.000000000000D+00
    0.290000000000D+01 0.000000000000D+00-0.111758708954D-07 0.153000000000D+03
    0.223200000000D+06 0.000000000000D+00 0.000000000000D+00 0.000000000000D+00
29 15  3 31 16  0  0.0 0.601446256042D-03 0.238742359215D-11 0.000000000000D+00
    0.710000000000D+02-0.104062500000D+02 0.455804700381D-08 0.181912114970D+00
   -0.594183802605D-06 0.138645002153D-02 0.342726707458D-05 0.515377980423D+04
    0.230400000000D+06 0.763684511185D-07-0.192490067301D+01-0.223517417908D-07
    0.972354199004D+00 0.320437500000D+03-0.717376590826D+00-0.828641659108D-08
   -0.257153568621D-10 0.000000000000D+00 0.183800000000D+04 0.000000000000D+00
    0.200000000000D+01 0.000000000000D+00-0.977888703346D-08 0.710000000000D+02
    0.225930000000D+06 0.400000000000D+01 0.000000000000D+00 0.000000000000D+00
30 15  3 31 16  0  0.0-0.757123343647D-04 0.329691829393D-11 0.000000000000D+00
    0.240000000000D+02-0.257500000000D+02 0.451554523344D-08 0.114149138624D+01
   -0.138208270073D-05 0.116883730516D-02 0.985153019428D-05 0.515376328850D+04
    0.230400000000D+06 0.186264514923D-08 0.228592376153D+01-0.670552253723D-07
    0.956444435316D+00 0.182093750000D+03 0.284826416081D+01-0.808783689087D-08
   -0.493949146393D-09 0.000000000000D+00 0.183800000000D+04 0.000000000000D+00
    0.200000000000D+01 0.000000000000D+00 0.325962901115D-08 0.240000000000D+02
    0.223200000000D+06 0.400000000000D+01 0.000000000000D+00 0.000000000000D+00
31 15  3 31 16  0  0.0 0.319790095091D-03-0.909494701773D-12 0.000000000000D+00
    0.770000000000D+02-0.327812500000D+02 0.414945855589D-08 0.820362811038D+00
   -0.183843076229D-05 0.818586046808D-02 0.903382897377D-05 0.515375664139D+04
    0.230400000000D+06 0.147148966789D-06 0.224328954935D+01-0.596046447754D-07
    0.975590195739D+00 0.210531250000D+03-0.524425238976D+00-0.789818613401D-08
   -0.453947480163D-09 0.100000000000D+01 0.183800000000D+04 0.000000000000D+00
    0.200000000000D+01 0.000000000000D+00-0.135041773319D-07 0.770000000000D+02
    0.226038000000D+06 0.400000000000D+01 0.000000000000D+00 0.000000000000D+00
32 15  3 31 16  0  0.0-0.187620054930D-03 0.943600753089D-11 0.000000000000D+00
    0.650000000000D+02 0.544375000000D+02 0.487663170271D-08 0.147462920809D+01
    0.271014869213D-05 0.112810106948D-01 0.915676355362D-05 0.515380046082D+04
    0.230400000000D+06 0.204890966415D-07 0.198354389617D+00 0.186264514923D-06
    0.947519723634D+00 0.196250000000D+03 0.282802501688D-01-0.821391357104D-08
    0.257153568621D-09 0.100000000000D+01 0.183800000000D+04 0.000000000000D+00
    0.200000000000D+01 0.630000000000D+02-0.372529029846D-08 0.650000000000D+02
    0.223218000000D+06 0.400000000000D+01 0.000000000000D+00 0.000000000000D+00
